STARLINK-30507          
1 57982U 23151U   26068.12650165 -.00000165  00000+0  28914-5 0  9992
2 57982  43.0052 355.0170 0001030 262.7137  97.3588 15.02538442135496
SEDNA-1                 
1 60580U 24149DS  26068.76583836  .00008721  00000+0  60834-3 0  9998
2 60580  97.6673 149.7617 0008344 330.8481  29.2278 15.05597965 85421
